NORAD_CAT_ID,OBJECT_NAME,OBJECT_TYPE,EPOCH,MEAN_MOTION,ECCENTRICITY,INCLINATION,RA_OF_ASC_NODE,ARG_OF_PERICENTER,MEAN_ANOMALY,BSTAR,MEAN_MOTION_DOT,MEAN_MOTION_DDOT,TLE_LINE0,TLE_LINE1,TLE_LINE2,SEMIMAJOR_AXIS,PERIOD,APOGEE,PERIGEE,DECAYED
52844.0,STARLINK-4208,PAYLOAD,2022-06-22 16:00:00,15.90573268,0.0040695,53.2176,20.1085,55.9833,196.2229,-0.0025073,-0.00856562,0.00022823,0 STARLINK-4208,1 52844U 22062Q   22173.66667824 -.00856562  22823-3 -25073-2 0  9998,2 52844  53.2176  20.1085 0040695  55.9833 196.2229 15.90573268  1303,6678.815,90.533,327.8590000000001,273.5,0.0
52844.0,STARLINK-4208,PAYLOAD,2022-06-23 06:00:00,15.89611649,0.0034974,53.2174,17.1493,57.5214,295.8165,-0.0026098,-0.00831336,0.00021431,0 STARLINK-4208,1 52844U 22062Q   22174.25001157 -.00831336  21431-3 -26098-2 0  9999,2 52844  53.2174  17.1493 0034974  57.5214 295.8165 15.89611649  1392,6681.5080000000025,90.588,326.741,280.005,0.0
52844.0,STARLINK-4208,PAYLOAD,2022-06-23 14:00:01,15.89055223,0.0033074,53.2177,15.459,58.1772,43.4852,-0.0026049,-0.00801851,0.0001998,0 STARLINK-4208,1 52844U 22062Q   22174.58334491 -.00801851  19980-3 -26049-2 0  9996,2 52844  53.2177  15.4590 0033074  58.1772  43.4852 15.89055223  1446,6683.068,90.62,327.036,282.829,0.0
52844.0,STARLINK-4208,PAYLOAD,2022-06-23 22:00:00,15.88533326,0.0030302,53.2177,13.7733,58.3003,151.02100000000004,-0.0028416,-0.00844677,0.0002183,0 STARLINK-4208,1 52844U 22062Q   22174.91667824 -.00844677  21830-3 -28416-2 0  9992,2 52844  53.2177  13.7733 0030302  58.3003 151.0210 15.88533326  1499,6684.531,90.65,326.652,286.141,0.0
52844.0,STARLINK-4208,PAYLOAD,2022-06-24 06:00:02,15.87993511,0.0027828,53.2174,12.0851,57.9612,258.4419,-0.0029596,-0.00850586,0.00021995,0 STARLINK-4208,1 52844U 22062Q   22175.25002315 -.00850586  21995-3 -29596-2 0  9996,2 52844  53.2174  12.0851 0027828  57.9612 258.4419 15.87993511  1554,6686.045999999999,90.68,326.517,289.305,0.0
52844.0,STARLINK-4208,PAYLOAD,2022-06-24 14:00:01,15.87430027,0.0025526,53.2175,10.3993,59.1341,3.574,-0.0029025,-0.00806966,0.00019905,0 STARLINK-4208,1 52844U 22062Q   22175.58334491 -.00806966  19905-3 -29025-2 0  9993,2 52844  53.2175  10.3993 0025526  59.1341   3.5740 15.87430027  1306,6687.628000000002,90.713,326.564,292.422,0.0
52844.0,STARLINK-4208,PAYLOAD,2022-06-24 20:00:01,15.87027189,0.0023363,53.2173,9.1381,59.7176,352.3326,-0.003005,-0.00815093,0.00020191,0 STARLINK-4208,1 52844U 22062Q   22175.83334491 -.00815093  20191-3 -30050-2 0  9991,2 52844  53.2173   9.1381 0023363  59.7176 352.3326 15.87027189  1643,6688.76,90.736,326.252,294.998,0.0
52844.0,STARLINK-4208,PAYLOAD,2022-06-24 22:00:01,15.86896331,0.0022943,53.2176,8.7174,59.6089,108.8725,-0.0030636,-0.00824843,0.00020602,0 STARLINK-4208,1 52844U 22062Q   22175.91668981 -.00824843  20602-3 -30636-2 0  9994,2 52844  53.2176   8.7174 0022943  59.6089 108.8725 15.86896331  1308,6689.127,90.743,326.339,295.646,0.0
52844.0,STARLINK-4208,PAYLOAD,2022-06-25 14:00:01,15.85812341,0.0018076,53.2178,5.3517,59.7431,318.1407,-0.0032676,-0.00762514,0.0,0 STARLINK-4208,1 52844U 22062Q   22176.58334491 -.00762514  00000-0 -32676-2 0  9993,2 52844  53.2178   5.3517 0018076  59.7431 318.1407 15.85812341  1769,6692.175,90.805,326.137,301.944,0.0
52844.0,STARLINK-4208,PAYLOAD,2022-06-25 22:00:00,15.85261351,0.0015737,53.2175,3.6739,59.3777,62.2638,-0.0032948,-0.00746673,0.0,0 STARLINK-4208,1 52844U 22062Q   22176.91667824 -.00746673  00000-0 -32948-2 0  9999,2 52844  53.2175   3.6739 0015737  59.3777  62.2638 15.85261351  1305,6693.726,90.837,326.125,305.057,0.0
52844.0,STARLINK-4208,PAYLOAD,2022-06-26 14:00:01,15.84194904,0.0010758,53.2176,0.316,56.9128,270.3458,-0.0036549,-0.00778398,0.0,0 STARLINK-4208,1 52844U 22062Q   22177.58335648 -.00778398  00000-0 -36549-2 0  9999,2 52844  53.2176   0.3160 0010758  56.9128 270.3458 15.84194904  1927,6696.73,90.898,325.7990000000001,311.39,0.0
52844.0,STARLINK-4208,PAYLOAD,2022-06-26 22:00:00,15.83633681,0.0008012,53.2176,358.6422,53.7697,15.2285,-0.0035897,-0.00744847,0.0,0 STARLINK-4208,1 52844U 22062Q   22177.91667824 -.00744847  00000-0 -35897-2 0  9997,2 52844  53.2176 358.6422 0008012  53.7697  15.2285 15.83633681  1308,6698.312,90.93,325.543,314.81,0.0
52844.0,STARLINK-4208,PAYLOAD,2022-06-27 06:00:00,15.8310155,0.0005831,53.2176,356.9657,48.7098,121.4342,-0.0037812,-0.00762026,0.0,0 STARLINK-4208,1 52844U 22062Q   22178.25001157 -.00762026  00000-0 -37812-2 0  9994,2 52844  53.2176 356.9657 0005831  48.7098 121.4342 15.83101550  2023,6699.813,90.961,325.584,317.771,0.0
52844.0,STARLINK-4208,PAYLOAD,2022-06-27 14:00:01,15.82571504,0.000458,53.2176,355.2927,40.0284,230.6076,-0.0040012,-0.00783692,0.0,0 STARLINK-4208,1 52844U 22062Q   22178.58334491 -.00783692  00000-0 -40012-2 0  9998,2 52844  53.2176 355.2927 0004580  40.0284 230.6076 15.82571504  1303,6701.309,90.991,326.243,320.1040000000001,0.0
52844.0,STARLINK-4208,PAYLOAD,2022-06-27 22:00:00,15.8201718,0.0002898999999999,53.2173,353.6227,14.7947,355.6889,-0.0039915,-0.00762713,0.0,0 STARLINK-4208,1 52844U 22062Q   22178.91667824 -.00762713  00000-0 -39915-2 0  9995,2 52844  53.2173 353.6227 0002899  14.7947 355.6889 15.82017180  2137,6702.874,91.023,326.682,322.796,0.0
52844.0,STARLINK-4208,PAYLOAD,2022-06-28 14:00:01,15.80933121,0.0002841,53.2178,350.2812,12.8824,195.3353,-0.0042069,-0.00763988,0.0,0 STARLINK-4208,1 52844U 22062Q   22179.58334491 -.00763988  00000-0 -42069-2 0  9999,2 52844  53.2178 350.2812 0002841  12.8824 195.3353 15.80933121  1308,6705.938,91.085,329.708,325.897,0.0
52844.0,STARLINK-4208,PAYLOAD,2022-06-28 22:00:00,15.80389708,0.0002576,53.2175,348.615,12.5803,293.5254,-0.0043021,-0.00761913,0.0,0 STARLINK-4208,1 52844U 22062Q   22179.91667824 -.00761913  00000-0 -43021-2 0  9990,2 52844  53.2175 348.6150 0002576  12.5803 293.5254 15.80389708  1307,6707.475,91.117,331.0680000000001,327.612,0.0
52844.0,STARLINK-4208,PAYLOAD,2022-06-29 14:00:01,15.79309298,0.0003597,53.2175,345.2816,341.3741,158.6071,-0.0045744,-0.0077047,0.0,0 STARLINK-4208,1 52844U 22062Q   22180.58334491 -.00770470  00000-0 -45744-2 0  9998,2 52844  53.2175 345.2816 0003597 341.3741 158.6071 15.79309298  1309,6710.533,91.179,334.8119999999999,329.985,0.0
52844.0,STARLINK-4208,PAYLOAD,2022-06-29 22:00:00,15.78752973,0.0003273,53.2173,343.6194,267.4978,328.4204,-0.0045317,-0.00746136,0.0,0 STARLINK-4208,1 52844U 22062Q   22180.91667824 -.00746136  00000-0 -45317-2 0  9992,2 52844  53.2173 343.6194 0003273 267.4978 328.4204 15.78752973  1305,6712.11,91.211,336.172,331.778,0.0
52844.0,STARLINK-4208,PAYLOAD,2022-06-30 14:00:01,15.77680023,0.0001371,53.2177,340.2944,26.0879,39.7373,-0.0049003,-0.00766117,0.0,0 STARLINK-4208,1 52844U 22062Q   22181.58334491 -.00766117  00000-0 -49003-2 0  9994,2 52844  53.2177 340.2944 0001371  26.0879  39.7373 15.77680023  1305,6715.153,91.273,337.9380000000001,336.097,0.0
52844.0,STARLINK-4208,PAYLOAD,2022-06-30 22:00:00,15.77131425,0.0001349,53.2173,338.6357,50.6264,109.1776,-0.0049448,-0.00755228,0.0,0 STARLINK-4208,1 52844U 22062Q   22181.91667824 -.00755228  00000-0 -49448-2 0  9994,2 52844  53.2173 338.6357 0001349  50.6264 109.1776 15.77131425  1302,6716.71,91.305,339.481,337.6690000000001,0.0
52844.0,STARLINK-4208,PAYLOAD,2022-07-01 14:00:01,15.76051151,0.0001264,53.2174,335.3188,48.8123,296.9899,-0.0052508,-0.00763495,0.0,0 STARLINK-4208,1 52844U 22062Q   22182.58334491 -.00763495  00000-0 -52508-2 0  9995,2 52844  53.2174 335.3188 0001264  48.8123 296.9899 15.76051151  1305,6719.779,91.368,342.49300000000005,340.7940000000001,0.0
52844.0,STARLINK-4208,PAYLOAD,2022-07-01 22:00:00,15.75506734,0.0001106,53.2172,333.6641,62.002,15.8217,-0.0053474,-0.00759378,0.0,0 STARLINK-4208,1 52844U 22062Q   22182.91667824 -.00759378  00000-0 -53474-2 0  9999,2 52844  53.2172 333.6641 0001106  62.0020  15.8217 15.75506734  2761,6721.3269999999975,91.399,343.935,342.4480000000001,0.0
52844.0,STARLINK-4208,PAYLOAD,2022-07-02 14:00:01,15.74421717,0.0001446,53.2177,330.3555,45.6823,214.2297,-0.0056102,-0.00759716,0.0,0 STARLINK-4208,1 52844U 22062Q   22183.58334491 -.00759716  00000-0 -56102-2 0  9991,2 52844  53.2177 330.3555 0001446  45.6823 214.2297 15.74421717  1307,6724.4140000000025,91.462,347.25199999999984,345.307,0.0
52844.0,STARLINK-4208,PAYLOAD,2022-07-02 22:00:00,15.73806574,0.000117,53.2172,328.7044,66.2468,283.7443,-0.0042667,-0.00575036,0.0,0 STARLINK-4208,1 52844U 22062Q   22183.91667824 -.00575036  00000-0 -42667-2 0  9999,2 52844  53.2172 328.7044 0001170  66.2468 283.7443 15.73806574  2924,6726.166,91.498,348.8180000000001,347.244,0.0
52844.0,STARLINK-4208,PAYLOAD,2022-07-03 06:00:00,15.73330153,0.0001242,53.2173,327.0518,49.6694,29.7381,-0.0013841,-0.00191574,0.0,0 STARLINK-4208,1 52844U 22062Q   22184.25001157 -.00191574  00000-0 -13841-2 0  9991,2 52844  53.2173 327.0518 0001242  49.6694  29.7381 15.73330153  2978,6727.524,91.526,350.225,348.55400000000014,0.0
52844.0,STARLINK-4208,PAYLOAD,2022-07-03 14:00:01,15.73402153,0.0001473,53.2173,325.4031,42.5332,125.7678,-0.002126,-0.00291415,0.0,0 STARLINK-4208,1 52844U 22062Q   22184.58334491 -.00291415  00000-0 -21260-2 0  9996,2 52844  53.2173 325.4031 0001473  42.5332 125.7678 15.73402153  1309,6727.319,91.521,350.175,348.1930000000001,0.0
52844.0,STARLINK-4208,PAYLOAD,2022-07-03 22:00:00,15.73204034,0.000137,53.2153,323.7548,29.3811,227.7799,0.0003818,0.00053313,0.0,0 STARLINK-4208,1 52844U 22062Q   22184.91667824  .00053313  00000-0  38180-3 0  9993,2 52844  53.2153 323.7548 0001370  29.3811 227.7799 15.73204034  1307,6727.884,91.533,350.67,348.827,0.0
52844.0,STARLINK-4208,PAYLOAD,2022-07-04 06:00:00,15.73196735,0.0001226,53.2156,322.1033,36.1696,309.9361,0.00056868,0.00079942,0.0,0 STARLINK-4208,1 52844U 22062Q   22185.25001157  .00079942  00000-0  56868-3 0  9991,2 52844  53.2156 322.1033 0001226  36.1696 309.9361 15.73196735  3138,6727.904,91.533,350.594,348.945,0.0
